OBJECT_NAME,OBJECT_ID,EPOCH,MEAN_MOTION,ECCENTRICITY,INCLINATION,RA_OF_ASC_NODE,ARG_OF_PERICENTER,MEAN_ANOMALY,EPHEMERIS_TYPE,CLASSIFICATION_TYPE,NORAD_CAT_ID,ELEMENT_SET_NO,REV_AT_EPOCH,BSTAR,MEAN_MOTION_DOT,MEAN_MOTION_DDOT
QZS-6 (MICHIBIKI-6),2025-023A,2026-07-18T23:31:26.524704,1.00274598,.00018933,0.0115,35.8855,78.8766,265.3335,0,U,62876,999,526,0,-.239E-5,0
ZHONGXING-10R,2025-036A,2026-07-18T23:02:03.071328,1.00270662,.00043314,0.0255,168.8722,337.6824,246.2254,0,U,63075,999,527,0,-.358E-5,0
TJS-15,2025-045A,2026-07-18T19:29:25.725120,1.00272854,.0003083,0.3094,85.6905,294.8019,302.8663,0,U,63157,999,507,0,-.272E-5,0
TIANLIAN 2-04,2025-062A,2026-07-18T23:14:07.710720,1.00272598,.00314367,4.2942,273.9815,9.2384,82.1007,0,U,63361,999,492,0,-.14E-5,0
TJS-16,2025-064A,2026-07-18T17:24:34.307712,1.00271244,.0002454,1.1777,81.2665,294.7569,342.2525,0,U,63397,999,470,0,-.112E-5,0
TJS-17,2025-073A,2026-07-18T19:48:12.890016,1.00271316,.0001008,1.1440,82.4266,314.2292,1.5118,0,U,63524,999,460,0,-.77E-6,0
TIANLIAN 2-05,2025-084A,2026-07-18T23:34:50.851200,1.00273006,.00027001,4.3716,279.4727,157.1432,234.2368,0,U,63662,999,470,0,.12E-5,0
TJS-19,2025-097A,2026-07-18T19:42:30.026304,1.00274857,.000411,3.2341,317.9697,251.3720,164.1101,0,U,63924,999,446,0,-.281E-5,0
CHINASAT 3B,2025-106A,2026-07-19T03:42:27.026208,1.00272149,.0004139,0.0330,186.5072,319.2493,14.1137,0,U,64062,999,438,0,-.5E-6,0
SXM-10,2025-122A,2026-07-18T14:07:38.839008,1.00272944,.0001835,0.0175,44.1254,322.9805,25.0263,0,U,64290,999,399,0,-.24E-6,0
COSMOS 2589,2025-131A,2026-07-18T19:39:31.426272,1.00268636,.0001222,0.0238,120.2702,64.5231,144.7079,0,U,64467,999,387,0,-.297E-5,0
CHINASAT 9C,2025-132A,2026-07-18T21:30:38.608416,1.00273439,.00034392,0.0144,91.8755,23.8125,235.8527,0,U,64470,999,446,0,-.254E-5,0
MTG-S1,2025-143A,2026-07-18T18:58:38.631360,1.00274651,.00033112,0.5824,345.9806,259.1431,335.7516,0,U,64723,999,373,0,-.13E-6,0
DROR 1,2025-148A,2026-07-18T18:58:38.631360,1.00272819,.00020094,0.0400,238.7118,162.2390,176.3054,0,U,64784,999,361,0,-.41E-6,0
SHIYAN-29,2025-196A,2026-07-17T23:08:38.701248,1.00275892,.00131541,28.8546,18.1469,177.5801,182.5349,0,U,65486,999,318,0,-.287E-5,0
NUSANTARA LIMA (NUSANTARA 5),2025-205A,2026-07-18T03:27:38.745216,1.00271133,.00004154,0.0142,96.0397,69.3252,295.3574,0,U,65588,999,303,0,0,0
TJS-20,2025-238A,2026-07-18T22:53:01.154112,1.00267957,.00038049,5.3988,299.4301,187.2691,215.7541,0,U,66142,999,265,0,.21E-6,0
CMS-03 (GSAT-7R),2025-249B,2026-07-18T20:17:38.576832,1.00269770,.00024266,0.0147,57.1133,61.1071,196.8325,0,U,66311,999,266,0,0,0
VIASAT-3 F2,2025-261A,2026-07-18T06:00:26.580960,1.00272057,.00005696,0.0351,206.6519,6.7692,93.7744,0,U,66454,999,310,0,-.242E-5,0
SHIJIAN-28 (SJ-28),2025-277A,2026-07-18T17:12:05.505696,1.00275211,.00012319,4.4579,271.6305,54.4497,345.2658,0,U,66549,999,247,0,-.365E-5,0
TJS-22,2025-290A,2026-07-12T19:22:52.255200,1.00269739,.0002691,1.4677,286.9097,318.9700,42.0235,0,U,66990,999,228,0,-.5E-7,0
TJS-23,2025-306A,2026-07-18T12:22:26.652864,1.00268121,.0004396,5.5184,297.3214,198.9022,161.2643,0,U,67226,999,220,0,.11E-6,0
FENGYUN 4C,2025-312A,2026-07-13T15:48:28.031328,1.00269440,.00006584,0.0385,175.3203,48.7481,77.5697,0,U,67246,999,204,0,-.328E-5,0
SHIJIAN-29A (SJ-29A),2025-315A,2026-07-18T23:33:24.166944,1.00273026,.00049792,3.4770,94.3451,50.8839,218.0715,0,U,67302,999,193,0,-.75E-6,0
SHIJIAN-29B (SJ-29B),2025-315C,2026-07-18T23:33:24.158304,1.00273297,.00051723,3.4759,94.3382,54.1508,214.8629,0,U,67403,999,200,0,-.76E-6,0
ELEKTRO-L 5,2026-028A,2026-07-17T23:12:29.470464,1.00271857,.00020771,0.2040,326.3173,176.0737,217.6039,0,U,67756,999,155,0,-.106E-5,0
JAM-E JAM 1,2026-028B,2026-07-18T22:16:55.998624,1.00265999,.0000724,0.1998,314.7945,261.9232,88.2489,0,U,67757,999,143,0,.15E-5,0
ECHOSTAR 25,2026-045A,2026-07-18T13:59:38.658048,1.00271629,.0001758,0.0186,52.0699,56.8523,287.3607,0,U,68126,999,130,0,-.64E-6,0
TJS-24,2026-116A,2026-07-18T23:31:26.505696,1.00273820,.0000332,0.0869,94.3343,151.7159,133.8728,0,U,69235,999,54,0,-.238E-5,0
